{"version": 0.6, "generator": "Overpass API 0.7.62.8 e802775f", "osm3s": {"timestamp_osm_base": "2026-01-04T07:13:44Z", "copyright": "The data included in this document is from www.openstreetmap.org. The data is made available under ODbL."}, "elements": [{"type": "node", "id": 356809832, "lat": 33.6742118, "lon": -95.551118}, {"type": "node", "id": 4718677924, "lat": 33.6727092, "lon": -95.5511332}, {"type": "node", "id": 4718677925, "lat": 33.6726303, "lon": -95.5489635}, {"type": "node", "id": 4718677926, "lat": 33.6736878, "lon": -95.5489787}, {"type": "node", "id": 4718677927, "lat": 33.6734984, "lon": -95.5502835}, {"type": "node", "id": 4718677928, "lat": 33.6742024, "lon": -95.550238}, {"type": "way", "id": 478656433, "nodes": [356809832, 4718677924, 4718677925, 4718677926, 4718677927, 4718677928, 356809832], "tags": {"addr:city": "Paris", "addr:housenumber": "655", "addr:postcode": "75640", "addr:state": "TX", "addr:street": "Martin Luther King, Junior Drive", "amenity": "school", "ele": "167", "gnis:feature_id": "2007912", "name": "Givens Elementary School", "operator": "Paris ISD", "operator:type": "public"}}]}