{"version": 0.6, "generator": "Overpass API 0.7.62.8 e802775f", "osm3s": {"timestamp_osm_base": "2026-01-04T07:28:09Z", "copyright": "The data included in this document is from www.openstreetmap.org. The data is made available under ODbL."}, "elements": [{"type": "node", "id": 1987734179, "lat": 26.7575886, "lon": 94.201555, "tags": {"amenity": "hospital", "healthcare": "hospital", "name": "Sanjivani Hospital"}}, {"type": "node", "id": 6913054790, "lat": 26.7466487, "lon": 94.2021123, "tags": {"addr:district": "Jorhat", "addr:full": "At Road, Tarajan", "addr:postcode": "785001", "addr:state": "Assam", "amenity": "hospital", "healthcare": "hospital", "name": "Sanjivani Hospital, Jorhat", "source": "OpenGovernmentData"}}, {"type": "node", "id": 7540578916, "lat": 26.7621573, "lon": 94.208063, "tags": {"addr:district": "Jorhat", "addr:full": "Old Circuit House Road, Malow Ali, Jorhat", "addr:postcode": "785001", "addr:state": "Assam", "amenity": "hospital", "healthcare": "hospital", "name": "Chandraprabha Eye Hospital", "source": "Local Knowledge"}}, {"type": "node", "id": 11351332651, "lat": 26.7538629, "lon": 94.2029298, "tags": {"amenity": "hospital", "healthcare": "hospital", "name": "ONGC Medical Section Jorhat"}}]}