{"version": 0.6, "generator": "Overpass API 0.7.62.8 e802775f", "osm3s": {"timestamp_osm_base": "2026-01-06T11:29:15Z", "copyright": "The data included in this document is from www.openstreetmap.org. The data is made available under ODbL."}, "elements": [{"type": "node", "id": 7013741973, "lat": 23.1709437, "lon": 79.9283132, "tags": {"addr:district": "Jabalpur", "addr:full": "659, Gole Bazar, Near Mahakushal School", "addr:postcode": "482002", "addr:state": "Madhya Pradesh", "amenity": "hospital", "name": "Omega Childrens Hospital", "source": "OpenGovernmentData"}}, {"type": "node", "id": 7014085957, "lat": 23.1694321, "lon": 79.9286726, "tags": {"addr:district": "Jabalpur", "addr:full": "Gole Bazar", "addr:postcode": "482002", "addr:state": "Madhya Pradesh", "amenity": "hospital", "name": "Jamdar Hospital Pvt Ltd", "source": "OpenGovernmentData"}}, {"type": "node", "id": 7015412775, "lat": 23.1685987, "lon": 79.9282515, "tags": {"addr:district": "Jabalpur", "addr:full": "Gole Bazar", "addr:postcode": "482004", "addr:state": "Madhya Pradesh", "amenity": "hospital", "name": "Bombay Hospital and Research Center", "source": "OpenGovernmentData"}}, {"type": "node", "id": 7015450556, "lat": 23.1707736, "lon": 79.9287303, "tags": {"addr:district": "Jabalpur", "addr:full": "# 703, Near Saheed Smarak Gol Bazar", "addr:postcode": "482002", "addr:state": "Madhya Pradesh", "amenity": "hospital", "name": "National Hospital, Jabalpur", "source": "OpenGovernmentData"}}]}