{"version": 0.6, "generator": "Overpass API 0.7.62.8 e802775f", "osm3s": {"timestamp_osm_base": "2026-01-04T06:36:28Z", "copyright": "The data included in this document is from www.openstreetmap.org. The data is made available under ODbL."}, "elements": [{"type": "node", "id": 6913054985, "lat": 26.1496128, "lon": 91.7867147, "tags": {"addr:district": "Kamrup", "addr:full": "G.S Road", "addr:postcode": "781005", "addr:state": "Assam", "amenity": "hospital", "contact:phone": "9207043831", "name": "Dispur Hospitals Pvt Ltd", "source": "OpenGovernmentData"}}, {"type": "node", "id": 6913175912, "lat": 26.1389733, "lon": 91.7943965, "tags": {"addr:district": "Kamrup", "addr:full": "Dispur", "addr:postcode": "781005", "addr:state": "Assam", "amenity": "hospital", "name": "G N R C Heart Institute", "source": "OpenGovernmentData"}}, {"type": "node", "id": 6913288151, "lat": 26.1449839, "lon": 91.7855036}, {"type": "node", "id": 6913288152, "lat": 26.1452998, "lon": 91.7854352}, {"type": "node", "id": 6913288153, "lat": 26.1453251, "lon": 91.78558}, {"type": "node", "id": 6913288154, "lat": 26.1450092, "lon": 91.7856485}, {"type": "way", "id": 738302621, "nodes": [6913288151, 6913288152, 6913288153, 6913288154, 6913288151], "tags": {"addr:district": "Kamrup", "addr:full": "Kahlipara Road, Ganesh Guri, Near Ganesh Mandir", "addr:postcode": "781006", "addr:state": "Assam", "amenity": "hospital", "building": "yes", "check_date": "2025-05-22", "healthcare": "hospital", "healthcare:speciality": "neurosurgery", "name": "Advance Neuro Science Hospital", "source": "OpenGovernmentData"}}]}